[{"OBJECT_NAME":"SENTINEL-1A","OBJECT_ID":"2014-016A","EPOCH":"2026-03-10T00:10:49.728000","MEAN_MOTION":14.5919833,"ECCENTRICITY":0.00013278,"INCLINATION":98.1822,"RA_OF_ASC_NODE":77.9733,"ARG_OF_PERICENTER":84.6895,"MEAN_ANOMALY":275.4456,"EPHEMERIS_TYPE":0,"CLASSIFICATION_TYPE":"U","NORAD_CAT_ID":39634,"ELEMENT_SET_NO":999,"REV_AT_EPOCH":63555,"BSTAR":5.6499537e-5,"MEAN_MOTION_DOT":2.21e-6,"MEAN_MOTION_DDOT":0},{"OBJECT_NAME":"MACSAT 1 (M 1)","OBJECT_ID":"1990-043A","EPOCH":"2026-03-09T21:54:55.342656","MEAN_MOTION":14.75051497,"ECCENTRICITY":0.00891375,"INCLINATION":89.7412,"RA_OF_ASC_NODE":247.409,"ARG_OF_PERICENTER":352.5333,"MEAN_ANOMALY":7.4553,"EPHEMERIS_TYPE":0,"CLASSIFICATION_TYPE":"U","NORAD_CAT_ID":20607,"ELEMENT_SET_NO":999,"REV_AT_EPOCH":89974,"BSTAR":9.761876e-5,"MEAN_MOTION_DOT":7.18e-6,"MEAN_MOTION_DDOT":0}]
